ASRTU-1
1 61781U 24199AY  24350.96869213  .00004303  00000-0  17741-3 0 00002
2 61781 097.3789 215.1172 0019342 097.4012 322.3356 15.23939602000014

//ASRTU-1_20241215A
